GLOBALSTAR M063         
1 26081U 00008A   25007.81759601 -.00000047  00000+0  51516-3 0  9998
2 26081  51.9921 173.9265 0004842  20.2082 125.6035 11.86168401138618
GLOBALSTAR M062         
1 26082U 00008B   25007.82975947 -.00000043  00000+0  39548-3 0  9990
2 26082  51.9817 207.3429 0007892 123.2888 250.6735 12.43457410139176
GLOBALSTAR M060         
1 26083U 00008C   25007.59347132 -.00000062  00000+0  28831-3 0  9998
2 26083  51.9999 145.3236 0004221 144.7196 320.2059 12.17653571132801
GLOBALSTAR M064         
1 26084U 00008D   25007.76542610 -.00000092  00000+0 -12521-3 0  9999
2 26084  52.0035 274.7855 0002178  90.2195 269.8888 11.88528495148136
GLOBALSTAR M065         
1 31571U 07020A   25007.70997882 -.00000057  00000+0  26136-3 0  9993
2 31571  51.9915 354.7053 0010194 312.2691 218.8942 12.61991184813452
GLOBALSTAR M069         
1 31573U 07020C   25007.56828059 -.00000056  00000+0  28643-3 0  9992
2 31573  51.9969 315.6791 0000615  73.7517  97.6625 12.53308806814176
GLOBALSTAR M072         
1 31574U 07020D   25006.47718571 -.00000090  00000+0 -67028-4 0  9999
2 31574  52.0094  62.4394 0000951  85.4953  18.5629 11.95103795812181
GLOBALSTAR M071         
1 31576U 07020F   25007.34639979 -.00000058  00000+0  30535-3 0  9997
2 31576  52.0083 321.5665 0002156  72.9721  90.5925 12.31891861475334
